     2.11           N                                       RINEX VERSION / TYPE
EDAS                ESSP                05-01-15 22:00      PGM / RUN BY / DATE 
    1.6764e-08 -7.4506e-09 -5.9605e-08  1.1921e-07          ION ALPHA           
    1.3517e+05 -1.8022e+05  6.5536e+04  0.0000e+00          ION BETA            
    9.313225746155e-10 8.881784197001e-16   405504     1826 DELTA-UTC: A0,A1,T,W
    16                                                      LEAP SECONDS        
                                                            END OF HEADER       
14 15  1  6  0  0  0.0 9.954813867807e-05-3.524291969370e-12 0.000000000000e+00
    1.010000000000e+02-4.281250000000e+00 4.353752779850e-09-1.533909338967e+00
   -1.154839992523e-07 7.742406101897e-03 1.030042767525e-05 5.153770448685e+03
    1.728000000000e+05 1.396983861923e-07 2.743668909189e+00 9.499490261078e-08
    9.681174990083e-01 1.837500000000e+02-1.968264941290e+00-7.724964632927e-09
   -5.675236396376e-10 1.000000000000e+00 1.826000000000e+03 0.000000000000e+00
    2.000000000000e+00 0.000000000000e+00-9.313225746155e-09 1.010000000000e+02
    1.656030000000e+05 4.000000000000e+00 0.000000000000e+00 0.000000000000e+00
15 15  1  6  0  0  0.0-2.246210351586e-04-2.273736754432e-12 0.000000000000e+00
    1.110000000000e+02-1.875000000000e+01 5.193430612945e-09-2.205396565425e+00
   -1.244246959686e-06 6.990430643782e-03 9.527429938316e-06 5.153572322845e+03
    1.728000000000e+05 7.636845111847e-08 2.624326346138e+00-1.676380634308e-07
    9.346278399839e-01 1.822500000000e+02 3.531902067384e-01-8.198912946205e-09
   -5.164500836475e-10 1.000000000000e+00 1.826000000000e+03 0.000000000000e+00
    2.800000000000e+00 0.000000000000e+00-1.024454832077e-08 1.110000000000e+02
    1.656030000000e+05 4.000000000000e+00 0.000000000000e+00 0.000000000000e+00
22 15  1  6  0  0  0.0 3.043091855943e-04 3.751665644813e-12 0.000000000000e+00
    8.800000000000e+01 1.250000000000e+01 5.935604384605e-09-3.633425275890e-01
    7.264316082001e-07 7.352736662142e-03 4.539266228676e-06 5.153697467804e+03
    1.728000000000e+05-5.401670932770e-08 1.605969194492e+00 9.313225746155e-08
    9.225510708808e-01 2.729062500000e+02-2.066636872110e+00-8.825010454251e-09
    2.100087477073e-10 1.000000000000e+00 1.826000000000e+03 0.000000000000e+00
    2.800000000000e+00 0.000000000000e+00-1.769512891769e-08 8.800000000000e+01
    1.656030000000e+05 4.000000000000e+00 0.000000000000e+00 0.000000000000e+00
17 15  1  6  0  0  0.0-1.483024097979e-04-2.273736754432e-12 0.000000000000e+00
    1.060000000000e+02-1.167812500000e+02 4.168387915802e-09-1.348605675182e+00
   -6.036832928658e-06 9.954409906641e-03 7.798895239830e-06 5.153697866440e+03
    1.728000000000e+05 2.216547727585e-07-4.297250862433e-01 1.899898052216e-07
    9.712965662864e-01 2.340937500000e+02-2.057835566346e+00-7.891042979328e-09
   -3.050127050035e-10 1.000000000000e+00 1.826000000000e+03 0.000000000000e+00
    2.800000000000e+00 0.000000000000e+00-1.071020960808e-08 1.060000000000e+02
    1.656030000000e+05 4.000000000000e+00 0.000000000000e+00 0.000000000000e+00
25 15  1  6  0  0  0.0 5.065463483334e-06-2.387423592154e-12 0.000000000000e+00
    8.200000000000e+01 2.643750000000e+01 4.517688179846e-09 9.911365413181e-01
    1.410022377968e-06 3.962836111896e-03 5.085021257401e-07 5.153740823746e+03
    1.728000000000e+05-3.352761268616e-08-1.522331165992e+00 4.656612873077e-08
    9.773452980575e-01 3.766875000000e+02 6.647133934895e-01-8.445708940535e-09
   -1.785788670980e-11 1.000000000000e+00 1.826000000000e+03 0.000000000000e+00
    2.000000000000e+00 0.000000000000e+00 5.122274160385e-09 8.200000000000e+01
    1.656030000000e+05 4.000000000000e+00 0.000000000000e+00 0.000000000000e+00
12 15  1  6  0  0  0.0 2.591325901449e-04 2.955857780762e-12 0.000000000000e+00
    8.000000000000e+01 1.518750000000e+01 4.227318941945e-09 1.714737658392e+00
    7.171183824539e-07 5.114219733514e-03 6.891787052155e-07 5.153754581451e+03
    1.728000000000e+05-1.136213541031e-07-1.477318177329e+00 6.891787052155e-08
    9.887492228596e-01 3.807812500000e+02 4.986988561005e-01-8.267130073437e-09
   -5.535944880039e-11 1.000000000000e+00 1.826000000000e+03 0.000000000000e+00
    2.000000000000e+00 0.000000000000e+00-1.210719347000e-08 8.000000000000e+01
    1.656030000000e+05 4.000000000000e+00 0.000000000000e+00 0.000000000000e+00
 2 15  1  6  0  0  0.0 5.401466041803e-04 2.273736754432e-12 0.000000000000e+00
    3.300000000000e+01-8.375000000000e+00 4.512687971568e-09-2.931832108221e+00
   -5.066394805908e-07 1.413545385003e-02 1.160055398941e-05 5.153751167297e+03
    1.728000000000e+05 1.862645149231e-09 5.446993627434e-01-1.620501279831e-07
    9.404636396398e-01 1.417500000000e+02-2.346617432618e+00-7.709249692622e-09
    6.421696060846e-10 1.000000000000e+00 1.826000000000e+03 0.000000000000e+00
    2.000000000000e+00 0.000000000000e+00-2.048909664154e-08 3.300000000000e+01
    1.656030000000e+05 4.000000000000e+00 0.000000000000e+00 0.000000000000e+00
29 15  1  6  0  0  0.0 5.841259844601e-04 2.387423592154e-12 0.000000000000e+00
    7.300000000000e+01-1.385312500000e+02 4.098384999900e-09 1.458482600889e+00
   -7.223337888718e-06 1.236592186615e-03 7.910653948784e-06 5.153581550598e+03
    1.728000000000e+05 7.264316082001e-08-4.204891124079e-01 2.793967723846e-08
    9.721034065688e-01 2.326562500000e+02-8.739874249701e-01-7.904614973228e-09
   -2.878691337620e-10 1.000000000000e+00 1.826000000000e+03 0.000000000000e+00
    2.000000000000e+00 0.000000000000e+00-9.778887033463e-09 7.300000000000e+01
    1.656030000000e+05 4.000000000000e+00 0.000000000000e+00 0.000000000000e+00
24 15  1  6  0  0  0.0-4.129391163588e-05-6.821210263297e-13 0.000000000000e+00
    6.100000000000e+01 1.350937500000e+02 4.440542109260e-09 3.031980475094e+00
    7.005408406258e-06 2.835343591869e-03 9.566545486450e-06 5.153699430466e+03
    1.728000000000e+05-5.960464477539e-08-2.582421076775e+00-4.097819328308e-08
    9.551638977703e-01 1.913437500000e+02 2.364707611335e-01-7.949974005471e-09
    1.453631978178e-10 1.000000000000e+00 1.826000000000e+03 0.000000000000e+00
    2.800000000000e+00 0.000000000000e+00 2.793967723846e-09 6.100000000000e+01
    1.656030000000e+05 4.000000000000e+00 0.000000000000e+00 0.000000000000e+00
 6 15  1  6  0  0  0.0 4.390021786094e-05 9.663381206337e-12 0.000000000000e+00
    9.300000000000e+01-9.312500000000e+00 4.211961159374e-09-7.312284091355e-01
   -4.246830940247e-07 4.935305332765e-04 1.094490289688e-05 5.153674869537e+03
    1.728000000000e+05-1.005828380585e-07 5.706499904798e-01-2.980232238770e-08
    9.617603226636e-01 1.693437500000e+02 2.347701346659e+00-7.722107371054e-09
    5.585946962827e-10 1.000000000000e+00 1.826000000000e+03 0.000000000000e+00
    2.000000000000e+00 0.000000000000e+00 4.656612873077e-09 9.300000000000e+01
    1.656030000000e+05 4.000000000000e+00 0.000000000000e+00 0.000000000000e+00
31 15  1  6  0  0  0.0 3.260504454374e-04-6.821210263297e-13 0.000000000000e+00
    5.800000000000e+01 1.291250000000e+02 3.963736534108e-09 2.074593297332e+00
    6.970018148422e-06 8.315185084939e-03 9.462237358093e-06 5.153712915421e+03
    1.728000000000e+05 1.322478055954e-07-2.536869226626e+00 6.705522537231e-08
    9.767874259513e-01 2.013125000000e+02-5.814730109935e-01-7.730321998940e-09
    3.535861568541e-11 1.000000000000e+00 1.826000000000e+03 0.000000000000e+00
    2.000000000000e+00 0.000000000000e+00-1.350417733192e-08 5.800000000000e+01
    1.679900000000e+05 4.000000000000e+00 0.000000000000e+00 0.000000000000e+00
14 15  1  6  2  0  0.0 9.952252730727e-05-3.524291969370e-12 0.000000000000e+00
    1.080000000000e+02-1.718750000000e+00 4.386254133662e-09-4.837259875747e-01
   -7.450580596924e-08 7.742804824375e-03 1.033581793308e-05 5.153771627426e+03
    1.800000000000e+05-6.146728992462e-08 2.743612360090e+00 5.960464477539e-08
    9.681125441048e-01 1.876562500000e+02-1.968327728271e+00-7.926044437279e-09
   -5.546659612065e-10 1.000000000000e+00 1.826000000000e+03 0.000000000000e+00
    2.000000000000e+00 0.000000000000e+00-9.313225746155e-09 1.080000000000e+02
    1.728030000000e+05 4.000000000000e+00 0.000000000000e+00 0.000000000000e+00
31 15  1  6  2  0  0.0 3.260453231633e-04-6.821210263297e-13 0.000000000000e+00
    8.500000000000e+01 1.362187500000e+02 4.007309777680e-09 3.124738934696e+00
    7.104128599167e-06 8.315872284584e-03 9.780749678612e-06 5.153711891174e+03
    1.800000000000e+05-7.264316082001e-08-2.536925461197e+00 1.229345798492e-07
    9.767885085107e-01 1.990937500000e+02-5.814652472872e-01-7.645318458201e-09
    1.882221259213e-10 1.000000000000e+00 1.826000000000e+03 0.000000000000e+00
    2.000000000000e+00 0.000000000000e+00-1.350417733192e-08 8.500000000000e+01
    1.728030000000e+05 4.000000000000e+00 0.000000000000e+00 0.000000000000e+00
25 15  1  6  1 59 44.0 5.047768354416e-06-2.387423592154e-12 0.000000000000e+00
    6.000000000000e+00 2.750000000000e+01 4.498758819934e-09 2.038987082579e+00
    1.374632120132e-06 3.962814807892e-03 5.289912223816e-07 5.153740491867e+03
    1.799840000000e+05-1.452863216400e-07-1.522392155047e+00-4.284083843231e-08
    9.773457149891e-01 3.773437500000e+02 6.646694342641e-01-8.355705191517e-09
    6.643133856047e-11 1.000000000000e+00 1.826000000000e+03 0.000000000000e+00
    2.000000000000e+00 0.000000000000e+00 5.122274160385e-09 6.000000000000e+00
    1.728030000000e+05 4.000000000000e+00 0.000000000000e+00 0.000000000000e+00
